{
  "type": "FeatureCollection",
  "features": [
    {
      "type": "Feature",
      "properties": {
        "norad_id": 37320,
        "name": "COSMOS 2251 DEB",
        "group": "cosmos-2251-debris",
        "lat": 6.927596495083478,
        "lon": 52.53795895857973,
        "alt_km": 664.0896558553486,
        "timestamp": "2025-12-04T09:47:37.917351+00:00",
        "meta_object_name": "COSMOS 2251 DEB",
        "meta_object_id": "1993-036BKL",
        "meta_epoch": "2025-12-04T00:53:37.294944",
        "meta_mean_motion": 14.78594712,
        "meta_eccentricity": 0.0047001,
        "meta_inclination": 74.0468,
        "meta_ra_of_asc_node": 235.2578,
        "meta_arg_of_pericenter": 323.9902,
        "meta_mean_anomaly": 35.8109,
        "meta_ephemeris_type": 0,
        "meta_classification_type": "U",
        "meta_norad_cat_id": 37320,
        "meta_element_set_no": 999,
        "meta_rev_at_epoch": 66018,
        "meta_bstar": 0.0019036,
        "meta_mean_motion_dot": 0.00014187,
        "meta_mean_motion_ddot": 0,
        "tle_line1": "1 37320U 93036BKL 25338.03723721  .00014187  00000+0  19036-2 0  9993",
        "tle_line2": "2 37320  74.0468 235.2578 0047001 323.9902  35.8109 14.78594712660183"
      },
      "geometry": {
        "type": "Point",
        "coordinates": [
          52.53795895857973,
          6.927596495083478
        ]
      }
    },
    {
      "type": "Feature",
      "properties": {
        "norad_id": 37326,
        "name": "COSMOS 2251 DEB",
        "group": "cosmos-2251-debris",
        "lat": 6.120396008072354,
        "lon": 168.8893683287193,
        "alt_km": 665.4072462893519,
        "timestamp": "2025-12-04T09:47:37.917361+00:00",
        "meta_object_name": "COSMOS 2251 DEB",
        "meta_object_id": "1993-036BKS",
        "meta_epoch": "2025-11-27T19:17:38.237856",
        "meta_mean_motion": 14.61468685,
        "meta_eccentricity": 0.00552422,
        "meta_inclination": 74.0262,
        "meta_ra_of_asc_node": 3.2841,
        "meta_arg_of_pericenter": 136.8831,
        "meta_mean_anomaly": 223.6683,
        "meta_ephemeris_type": 0,
        "meta_classification_type": "U",
        "meta_norad_cat_id": 37326,
        "meta_element_set_no": 999,
        "meta_rev_at_epoch": 85265,
        "meta_bstar": 0.00046910947,
        "meta_mean_motion_dot": 2.345e-05,
        "meta_mean_motion_ddot": 0,
        "tle_line1": "1 37326U 93036BKS 25331.80391479  .00002345  00000+0  46911-3 0  9994",
        "tle_line2": "2 37326  74.0262   3.2841 0055242 136.8831 223.6683 14.61468685852655"
      },
      "geometry": {
        "type": "Point",
        "coordinates": [
          168.8893683287193,
          6.120396008072354
        ]
      }
    },
    {
      "type": "Feature",
      "properties": {
        "norad_id": 37330,
        "name": "COSMOS 2251 DEB",
        "group": "cosmos-2251-debris",
        "lat": -48.40927527809979,
        "lon": 149.83321123702675,
        "alt_km": 686.6333187490363,
        "timestamp": "2025-12-04T09:47:37.917371+00:00",
        "meta_object_name": "COSMOS 2251 DEB",
        "meta_object_id": "1993-036BKW",
        "meta_epoch": "2025-12-03T16:17:30.112800",
        "meta_mean_motion": 14.59495159,
        "meta_eccentricity": 0.00573922,
        "meta_inclination": 74.0171,
        "meta_ra_of_asc_node": 312.3849,
        "meta_arg_of_pericenter": 163.4289,
        "meta_mean_anomaly": 196.877,
        "meta_ephemeris_type": 0,
        "meta_classification_type": "U",
        "meta_norad_cat_id": 37330,
        "meta_element_set_no": 999,
        "meta_rev_at_epoch": 86236,
        "meta_bstar": 0.00044650599,
        "meta_mean_motion_dot": 2.138e-05,
        "meta_mean_motion_ddot": 0,
        "tle_line1": "1 37330U 93036BKW 25337.67882075  .00002138  00000+0  44651-3 0  9996",
        "tle_line2": "2 37330  74.0171 312.3849 0057392 163.4289 196.8770 14.59495159862362"
      },
      "geometry": {
        "type": "Point",
        "coordinates": [
          149.83321123702675,
          -48.40927527809979
        ]
      }
    },
    {
      "type": "Feature",
      "properties": {
        "norad_id": 37331,
        "name": "COSMOS 2251 DEB",
        "group": "cosmos-2251-debris",
        "lat": 6.6316346557692905,
        "lon": 85.00924385412172,
        "alt_km": 778.9211359130577,
        "timestamp": "2025-12-04T09:47:37.917381+00:00",
        "meta_object_name": "COSMOS 2251 DEB",
        "meta_object_id": "1993-036BKX",
        "meta_epoch": "2025-12-01T01:26:56.105376",
        "meta_mean_motion": 14.34963315,
        "meta_eccentricity": 0.0055446,
        "meta_inclination": 74.0748,
        "meta_ra_of_asc_node": 89.2257,
        "meta_arg_of_pericenter": 107.2854,
        "meta_mean_anomaly": 253.4376,
        "meta_ephemeris_type": 0,
        "meta_classification_type": "U",
        "meta_norad_cat_id": 37331,
        "meta_element_set_no": 999,
        "meta_rev_at_epoch": 84592,
        "meta_bstar": 0.00070853607,
        "meta_mean_motion_dot": 2.027e-05,
        "meta_mean_motion_ddot": 0,
        "tle_line1": "1 37331U 93036BKX 25335.06037159  .00002027  00000+0  70854-3 0  9994",
        "tle_line2": "2 37331  74.0748  89.2257 0055446 107.2854 253.4376 14.34963315845920"
      },
      "geometry": {
        "type": "Point",
        "coordinates": [
          85.00924385412172,
          6.6316346557692905
        ]
      }
    },
    {
      "type": "Feature",
      "properties": {
        "norad_id": 37336,
        "name": "COSMOS 2251 DEB",
        "group": "cosmos-2251-debris",
        "lat": 52.22979070421769,
        "lon": 8.099290799474412,
        "alt_km": 757.2391234658153,
        "timestamp": "2025-12-04T09:47:37.917392+00:00",
        "meta_object_name": "COSMOS 2251 DEB",
        "meta_object_id": "1993-036BLC",
        "meta_epoch": "2025-12-01T07:48:14.136768",
        "meta_mean_motion": 14.32750931,
        "meta_eccentricity": 0.00286304,
        "meta_inclination": 74.0414,
        "meta_ra_of_asc_node": 352.0528,
        "meta_arg_of_pericenter": 73.4193,
        "meta_mean_anomaly": 287.0099,
        "meta_ephemeris_type": 0,
        "meta_classification_type": "U",
        "meta_norad_cat_id": 37336,
        "meta_element_set_no": 999,
        "meta_rev_at_epoch": 64956,
        "meta_bstar": 8.422431e-05,
        "meta_mean_motion_dot": 2.05e-06,
        "meta_mean_motion_ddot": 0,
        "tle_line1": "1 37336U 93036BLC 25335.32516362  .00000205  00000+0  84224-4 0  9999",
        "tle_line2": "2 37336  74.0414 352.0528 0028630  73.4193 287.0099 14.32750931649565"
      },
      "geometry": {
        "type": "Point",
        "coordinates": [
          8.099290799474412,
          52.22979070421769
        ]
      }
    },
    {
      "type": "Feature",
      "properties": {
        "norad_id": 37340,
        "name": "COSMOS 2251 DEB",
        "group": "cosmos-2251-debris",
        "lat": 27.564586208590892,
        "lon": 103.88439944653065,
        "alt_km": 773.6791151152256,
        "timestamp": "2025-12-04T09:47:37.917402+00:00",
        "meta_object_name": "COSMOS 2251 DEB",
        "meta_object_id": "1993-036BLG",
        "meta_epoch": "2025-12-02T15:19:15.488544",
        "meta_mean_motion": 14.36901939,
        "meta_eccentricity": 0.00173218,
        "meta_inclination": 74.0249,
        "meta_ra_of_asc_node": 295.7387,
        "meta_arg_of_pericenter": 33.3574,
        "meta_mean_anomaly": 326.8667,
        "meta_ephemeris_type": 0,
        "meta_classification_type": "U",
        "meta_norad_cat_id": 37340,
        "meta_element_set_no": 999,
        "meta_rev_at_epoch": 83922,
        "meta_bstar": 0.00027978609,
        "meta_mean_motion_dot": 8.03e-06,
        "meta_mean_motion_ddot": 0,
        "tle_line1": "1 37340U 93036BLG 25336.63837371  .00000803  00000+0  27979-3 0  9992",
        "tle_line2": "2 37340  74.0249 295.7387 0017321  33.3574 326.8667 14.36901939839222"
      },
      "geometry": {
        "type": "Point",
        "coordinates": [
          103.88439944653065,
          27.564586208590892
        ]
      }
    },
    {
      "type": "Feature",
      "properties": {
        "norad_id": 37483,
        "name": "COSMOS 2251 DEB",
        "group": "cosmos-2251-debris",
        "lat": 61.14436765143375,
        "lon": -169.67580944696786,
        "alt_km": 705.5422580838676,
        "timestamp": "2025-12-04T09:47:37.917412+00:00",
        "meta_object_name": "COSMOS 2251 DEB",
        "meta_object_id": "1993-036BLL",
        "meta_epoch": "2025-12-02T19:14:27.105504",
        "meta_mean_motion": 14.43532369,
        "meta_eccentricity": 0.00926542,
        "meta_inclination": 73.9725,
        "meta_ra_of_asc_node": 161.8757,
        "meta_arg_of_pericenter": 10.6514,
        "meta_mean_anomaly": 349.6575,
        "meta_ephemeris_type": 0,
        "meta_classification_type": "U",
        "meta_norad_cat_id": 37483,
        "meta_element_set_no": 999,
        "meta_rev_at_epoch": 65136,
        "meta_bstar": 0.00025341126,
        "meta_mean_motion_dot": 8.75e-06,
        "meta_mean_motion_ddot": 0,
        "tle_line1": "1 37483U 93036BLL 25336.80170261  .00000875  00000+0  25341-3 0  9997",
        "tle_line2": "2 37483  73.9725 161.8757 0092654  10.6514 349.6575 14.43532369651368"
      },
      "geometry": {
        "type": "Point",
        "coordinates": [
          -169.67580944696786,
          61.14436765143375
        ]
      }
    }
  ]
}